LEMUR-2-ROUNDTRIPPER    
1 62711U 25009DG  26190.18249634  .00006780  00000+0  49281-3 0  9995
2 62711  97.7231 272.8330 0004394  77.4321 282.7396 15.04164311 80930
LEMUR-2-MYNAMEISJEFF    
1 62712U 25009DH  26190.18094896  .00006756  00000+0  49119-3 0  9997
2 62712  97.7284 273.2256 0003629 111.5871 248.5742 15.04156817 80938
LEMUR-2-LEIA-PHILIP     
1 63246U 25052AN  26189.65466518  .00001704  00000+0  15164-3 0  9993
2 63246  97.6816  81.2420 0004961 135.3701 224.7921 14.97380709 71886
LEMUR-2-LIA-MARTIN      
1 63248U 25052AQ  26189.65194362  .00003795  00000+0  32627-3 0  9995
2 63248  97.6868  81.7463 0005340 106.1828 253.9982 14.97991386 71896
LEMUR-2-DELOITTE-1      
1 63259U 25052BB  26189.69813140  .00002354  00000+0  20556-3 0  9991
2 63259  97.6884  82.1233 0002308  66.8273 293.3192 14.97751965 71914
LEMUR-2-EMERSONROSE     
1 63261U 25052BD  26190.18602147  .00003443  00000+0  28709-3 0  9991
2 63261  97.6878  83.2031 0002768  70.0597 290.0924 14.99254968 72038
LEMUR-2-MARACHE-FRAN    
1 63262U 25052BE  26189.94607324  .00002271  00000+0  18602-3 0  9995
2 63262  97.6855  83.3255 0004573 280.3591  79.7117 15.00289249 72027
LEMUR-2-THEFALCONER     
1 63264U 25052BG  26190.12857510  .00002526  00000+0  22141-3 0  9999
2 63264  97.6850  82.1435 0000734  22.7964 337.3291 14.97544949 71973
LEMUR-2-UNTITLED-SC     
1 63351U 25061A   26190.17007910  .00002152  00000+0  12305-3 0  9998
2 63351  97.5647 165.3743 0018567 183.5741 176.5361 15.13621197 70915
LEMUR-2-ESPERANZA       
1 63352U 25061B   26190.74077637  .00002746  00000+0  15555-3 0  9994
2 63352  97.5652 166.0400 0018314 180.7928 179.3277 15.13732114 71006
LEMUR-2-KREMPEL-BRO2    
1 63353U 25061C   26190.49693726  .00002390  00000+0  13425-3 0  9999
2 63353  97.5701 166.3597 0019391 174.4032 185.7420 15.14154225 70983
LEMUR-2-THERMORAPTOR    
1 63354U 25061D   26190.74213578  .00002595  00000+0  14510-3 0  9994
2 63354  97.5705 166.6835 0019228 172.4021 187.7505 15.14238591 71022
LEMUR-2-NEUROSPICY      
1 63355U 25061E   26190.64599654  .00002159  00000+0  12105-3 0  9990
2 63355  97.5633 166.1966 0016892 175.5800 184.5584 15.14356648 71011
LEMUR-2-TILLINFINITY    
1 63356U 25061F   26189.87999242  .00002722  00000+0  14913-3 0  9996
2 63356  97.5618 165.7409 0018428 166.9103 193.2611 15.14936063 70921
LEMUR-2-KREMPEL-BRO1    
1 63357U 25061G   26190.64895248  .00002186  00000+0  12107-3 0  9992
2 63357  97.5620 166.4155 0019087 165.6519 194.5259 15.14747968 71039
LEMUR-2-LANGER2SPACE    
1 63358U 25061H   26190.01923226  .00002525  00000+0  14063-3 0  9992
2 63358  97.5624 165.5945 0016752 176.0729 184.0637 15.14437851 70924
LEMUR-2-BALTO           
1 63395U 25052BH  26190.13070015  .00003647  00000+0  29545-3 0  9992
2 63395  97.6932  83.4907 0005488 352.0024   8.1112 15.00327933 72056
LEMUR-2-KRISH           
1 64561U 25135AK  26190.27609989  .00004009  00000+0  35871-3 0  9995
2 64561  97.7763 305.0039 0001767  97.8826 262.2596 14.96418307 57225
LEMUR-2-HUBBLE-4        
1 64565U 25135AP  26190.71498154  .00001061  00000+0  10570-3 0  9992
2 64565  97.7714 304.3583 0002226 178.1277 181.9951 14.93674474 57234
LEMUR-2-SEJONG-2        
1 64586U 25135BL  26190.83373500  .00002308  00000+0  20624-3 0  9991
2 64586  97.7702 305.7041 0003483 243.4766 116.6099 14.96887799 57331
LEMUR-2-HUBBLE-5        
1 64840U 25135BT  26190.25698740  .00001340  00000+0  13040-3 0  9995
2 64840  97.7734 304.5681 0004115 260.6132  99.4623 14.94201118 57207
LEMUR-2-KARENDARRELL    
1 64841U 25135BU  26189.86116779  .00004672  00000+0  37564-3 0  9996
2 64841  97.7693 306.0385 0011750 124.4354 235.7982 15.00440878 57261
LEMUR-2-LUCILLE-ROSE    
1 65403U 25135BV  26190.56816341  .00004508  00000+0  36243-3 0  9993
2 65403  97.7711 306.7804 0014154 206.4413 153.6090 15.00445642 51994
LEMUR-2-AFFIE-WAUWIE    
1 66295U 25248C   26189.50541898  .00015242  00000+0  55604-3 0  9991
2 66295  45.3917 359.4149 0008528 217.2941 142.7357 15.28058168 37859
OTTER SDM               
1 66678U 25276N   26190.17264076  .00004363  00000+0  20565-3 0  9992
2 66678  97.4202 263.2859 0004240 282.7766  77.2995 15.20009823 33759
LEMUR-2-STAS-GORBUK     
1 66686U 25276W   26189.73157241  .00003772  00000+0  18027-3 0  9999
2 66686  97.4237 262.9047 0003436 281.4027  78.6822 15.19615471 33689
LEMUR-2-TEODOR          
1 66768U 25276DG  26190.15212511  .00004341  00000+0  19716-3 0  9999
2 66768  97.4142 263.5823 0002324  94.0564 266.0937 15.21295344 33780
LEMUR-2-LAILA           
1 66776U 25276DQ  26189.72822619  .00003860  00000+0  17456-3 0  9999
2 66776  97.4166 263.2996 0002898 104.2252 255.9306 15.21517643 33727
LEMUR-2-CELIJO-SB-PK    
1 66781U 25276DW  26189.71530559  .00004042  00000+0  32738-3 0  9996
2 66781  97.5199 259.7831 0007336  80.2189 279.9863 15.00241883 25858
LEMUR-2-FINNIAN         
1 66782U 25276DX  26189.82039194  .00001968  00000+0  16039-3 0  9998
2 66782  97.5333 260.1371 0008328  23.4790 336.6813 15.00570270 23245
