OBJECT_NAME,OBJECT_ID,EPOCH,MEAN_MOTION,ECCENTRICITY,INCLINATION,RA_OF_ASC_NODE,ARG_OF_PERICENTER,MEAN_ANOMALY,EPHEMERIS_TYPE,CLASSIFICATION_TYPE,NORAD_CAT_ID,ELEMENT_SET_NO,REV_AT_EPOCH,BSTAR,MEAN_MOTION_DOT,MEAN_MOTION_DDOT
LEMUR-2-ROUNDTRIPPER,2025-009DG,2026-07-09T04:22:47.683776,15.04164311,.00043944,97.7231,272.8330,77.4321,282.7396,0,U,62711,999,8093,.49281123E-3,.678E-4,0
LEMUR-2-MYNAMEISJEFF,2025-009DH,2026-07-09T04:20:33.990144,15.04156817,.00036298,97.7284,273.2256,111.5871,248.5742,0,U,62712,999,8093,.49118757E-3,.6756E-4,0
LEMUR-2-LEIA-PHILIP,2025-052AN,2026-07-08T15:42:43.071552,14.97380709,.00049616,97.6816,81.2420,135.3701,224.7921,0,U,63246,999,7188,.15163599E-3,.1704E-4,0
LEMUR-2-LIA-MARTIN,2025-052AQ,2026-07-08T15:38:47.928768,14.97991386,.00053407,97.6868,81.7463,106.1828,253.9982,0,U,63248,999,7189,.32627323E-3,.3795E-4,0
LEMUR-2-DELOITTE-1,2025-052BB,2026-07-08T16:45:18.552960,14.97751965,.00023088,97.6884,82.1233,66.8273,293.3192,0,U,63259,999,7191,.20556086E-3,.2354E-4,0
LEMUR-2-EMERSONROSE,2025-052BD,2026-07-09T04:27:52.255008,14.99254968,.00027685,97.6878,83.2031,70.0597,290.0924,0,U,63261,999,7203,.28708514E-3,.3443E-4,0
LEMUR-2-MARACHE-FRAN,2025-052BE,2026-07-08T22:42:20.727936,15.00289249,.00045737,97.6855,83.3255,280.3591,79.7117,0,U,63262,999,7202,.18602442E-3,.2271E-4,0
LEMUR-2-THEFALCONER,2025-052BG,2026-07-09T03:05:08.888640,14.97544949,.00007348,97.6850,82.1435,22.7964,337.3291,0,U,63264,999,7197,.22140592E-3,.2526E-4,0
LEMUR-2-UNTITLED-SC,2025-061A,2026-07-09T04:04:54.834240,15.13621197,.00185671,97.5647,165.3743,183.5741,176.5361,0,U,63351,999,7091,.12305117E-3,.2152E-4,0
LEMUR-2-ESPERANZA,2025-061B,2026-07-09T17:46:43.078368,15.13732114,.0018314,97.5652,166.0400,180.7928,179.3277,0,U,63352,999,7100,.15555E-3,.2746E-4,0
LEMUR-2-KREMPEL-BRO2,2025-061C,2026-07-09T11:55:35.379264,15.14154225,.0019391,97.5701,166.3597,174.4032,185.7420,0,U,63353,999,7098,.13425E-3,.239E-4,0
LEMUR-2-THERMORAPTOR,2025-061D,2026-07-09T17:48:40.531392,15.14238591,.0019228,97.5705,166.6835,172.4021,187.7505,0,U,63354,999,7102,.1451E-3,.2595E-4,0
LEMUR-2-NEUROSPICY,2025-061E,2026-07-09T15:30:14.101056,15.14356648,.0016892,97.5633,166.1966,175.5800,184.5584,0,U,63355,999,7101,.12105E-3,.2159E-4,0
LEMUR-2-TILLINFINITY,2025-061F,2026-07-08T21:07:11.345088,15.14936063,.00184285,97.5618,165.7409,166.9103,193.2611,0,U,63356,999,7092,.14913425E-3,.2722E-4,0
LEMUR-2-KREMPEL-BRO1,2025-061G,2026-07-09T15:34:29.494272,15.14747968,.0019087,97.5620,166.4155,165.6519,194.5259,0,U,63357,999,7103,.12107E-3,.2186E-4,0
LEMUR-2-LANGER2SPACE,2025-061H,2026-07-09T00:27:41.667264,15.14437851,.00167527,97.5624,165.5945,176.0729,184.0637,0,U,63358,999,7092,.14063256E-3,.2525E-4,0
LEMUR-2-BALTO,2025-052BH,2026-07-09T03:08:12.492960,15.00327933,.00054889,97.6932,83.4907,352.0024,8.1112,0,U,63395,999,7205,.29544681E-3,.3647E-4,0
LEMUR-2-KRISH,2025-135AK,2026-07-09T06:37:35.030496,14.96418307,.00017675,97.7763,305.0039,97.8826,262.2596,0,U,64561,999,5722,.35871011E-3,.4009E-4,0
LEMUR-2-HUBBLE-4,2025-135AP,2026-07-09T17:09:34.405056,14.93674474,.0002226,97.7714,304.3583,178.1277,181.9951,0,U,64565,999,5723,.1057E-3,.1061E-4,0
LEMUR-2-SEJONG-2,2025-135BL,2026-07-09T20:00:34.704000,14.96887799,.0003483,97.7702,305.7041,243.4766,116.6099,0,U,64586,999,5733,.20624E-3,.2308E-4,0
LEMUR-2-HUBBLE-5,2025-135BT,2026-07-09T06:10:03.711360,14.94201118,.00041158,97.7734,304.5681,260.6132,99.4623,0,U,64840,999,5720,.13039501E-3,.134E-4,0
LEMUR-2-KARENDARRELL,2025-135BU,2026-07-08T20:40:04.897056,15.00440878,.00117501,97.7693,306.0385,124.4354,235.7982,0,U,64841,999,5726,.37563629E-3,.4672E-4,0
LEMUR-2-LUCILLE-ROSE,2025-135BV,2026-07-09T13:38:09.318624,15.00445642,.0014154,97.7711,306.7804,206.4413,153.6090,0,U,65403,999,5199,.36243E-3,.4508E-4,0
LEMUR-2-AFFIE-WAUWIE,2025-248C,2026-07-08T12:07:48.199872,15.28058168,.00085285,45.3917,359.4149,217.2941,142.7357,0,U,66295,999,3785,.5560449E-3,.15242E-3,0
OTTER SDM,2025-276N,2026-07-09T04:08:36.161664,15.20009823,.00042405,97.4202,263.2859,282.7766,77.2995,0,U,66678,999,3375,.20564658E-3,.4363E-4,0
LEMUR-2-STAS-GORBUK,2025-276W,2026-07-08T17:33:27.856224,15.19615471,.00034361,97.4237,262.9047,281.4027,78.6822,0,U,66686,999,3368,.18026999E-3,.3772E-4,0
LEMUR-2-TEODOR,2025-276DG,2026-07-09T03:39:03.609504,15.21295344,.0002324,97.4142,263.5823,94.0564,266.0937,0,U,66768,999,3378,.19715611E-3,.4341E-4,0
LEMUR-2-LAILA,2025-276DQ,2026-07-08T17:28:38.742816,15.21517643,.00028988,97.4166,263.2996,104.2252,255.9306,0,U,66776,999,3372,.17456123E-3,.386E-4,0
LEMUR-2-CELIJO-SB-PK,2025-276DW,2026-07-08T17:10:02.402976,15.00241883,.00073369,97.5199,259.7831,80.2189,279.9863,0,U,66781,999,2585,.32737877E-3,.4042E-4,0
LEMUR-2-FINNIAN,2025-276DX,2026-07-08T19:41:21.863616,15.00570270,.00083289,97.5333,260.1371,23.4790,336.6813,0,U,66782,999,2324,.16039139E-3,.1968E-4,0
